[
    {
        "Altitude(m)": 604969.0890538152,
        "Argument of Periapsis(deg)": 0.0,
        "Eccentricity": 0.0,
        "Inclination(deg)": 60.0,
        "Latitude(deg)": -0.09259178703337914,
        "Longitude(deg)": 159.9775274708234,
        "Mean Anomaly(deg)": 0.0,
        "RAAN(deg)": 260.0,
        "Satellite Name": "Test1 1144",
        "Satellite Number": 1144,
        "Semi-Major Axis(m)": 6980739.136638005,
        "Time(s)": 0
    },
    {
        "Altitude(m)": 604900.0290294415,
        "Argument of Periapsis(deg)": 0.00010418945913296404,
        "Eccentricity": 0.0,
        "Inclination(deg)": 60.0,
        "Latitude(deg)": 0.44783371436371905,
        "Longitude(deg)": 160.24565128515246,
        "Mean Anomaly(deg)": 0.620106145461853,
        "RAAN(deg)": 259.99957995086027,
        "Satellite Name": "Test1 1144",
        "Satellite Number": 1144,
        "Semi-Major Axis(m)": 6980739.136638005,
        "Time(s)": 10
    },
    {
        "Altitude(m)": 604834.197067222,
        "Argument of Periapsis(deg)": 0.0002083789182659281,
        "Eccentricity": 0.0,
        "Inclination(deg)": 60.0,
        "Latitude(deg)": 0.9882559881170642,
        "Longitude(deg)": 160.51382651660583,
        "Mean Anomaly(deg)": 1.240212290923655,
        "RAAN(deg)": 259.9991599017205,
        "Satellite Name": "Test1 1144",
        "Satellite Number": 1144,
        "Semi-Major Axis(m)": 6980739.136638005,
        "Time(s)": 20
    },
    {
        "Altitude(m)": 604771.5995459553,
        "Argument of Periapsis(deg)": 0.00031256837739889213,
        "Eccentricity": 0.0,
        "Inclination(deg)": 60.0,
        "Latitude(deg)": 1.528657948132309,
        "Longitude(deg)": 160.78210755461828,
        "Mean Anomaly(deg)": 1.8603184363855083,
        "RAAN(deg)": 259.9987398525808,
        "Satellite Name": "Test1 1144",
        "Satellite Number": 1144,
        "Semi-Major Axis(m)": 6980739.136638005,
        "Time(s)": 30
    },
    {
        "Altitude(m)": 604712.2413145395,
        "Argument of Periapsis(deg)": 0.0004167578365318562,
        "Eccentricity": 0.0,
        "Inclination(deg)": 60.0,
        "Latitude(deg)": 2.0690224868511824,
        "Longitude(deg)": 161.0505493571695,
        "Mean Anomaly(deg)": 2.48042458184731,
        "RAAN(deg)": 259.998319803441,
        "Satellite Name": "Test1 1144",
        "Satellite Number": 1144,
        "Semi-Major Axis(m)": 6980739.136638005,
        "Time(s)": 40
    },
    {
        "Altitude(m)": 604656.1256924305,
        "Argument of Periapsis(deg)": 0.0005209472956648203,
        "Eccentricity": 0.0,
        "Inclination(deg)": 60.0,
        "Latitude(deg)": 2.609332465342349,
        "Longitude(deg)": 161.31920647421904,
        "Mean Anomaly(deg)": 3.1005307273091636,
        "RAAN(deg)": 259.9978997543013,
        "Satellite Name": "Test1 1144",
        "Satellite Number": 1144,
        "Semi-Major Axis(m)": 6980739.136638005,
        "Time(s)": 50
    },
    {
        "Altitude(m)": 604603.25447083,
        "Argument of Periapsis(deg)": 0.0006251367547977843,
        "Eccentricity": 0.0,
        "Inclination(deg)": 60.0,
        "Latitude(deg)": 3.1495707033492275,
        "Longitude(deg)": 161.58813358410328,
        "Mean Anomaly(deg)": 3.7206368727709656,
        "RAAN(deg)": 259.99747970516154,
        "Satellite Name": "Test1 1144",
        "Satellite Number": 1144,
        "Semi-Major Axis(m)": 6980739.136638005,
        "Time(s)": 60
    },
    {
        "Altitude(m)": 604553.627914643,
        "Argument of Periapsis(deg)": 0.0007293262139307483,
        "Eccentricity": 0.0,
        "Inclination(deg)": 60.0,
        "Latitude(deg)": 3.6897199692852753,
        "Longitude(deg)": 161.85738603005106,
        "Mean Anomaly(deg)": 4.340743018232819,
        "RAAN(deg)": 259.9970596560218,
        "Satellite Name": "Test1 1144",
        "Satellite Number": 1144,
        "Semi-Major Axis(m)": 6980739.136638005,
        "Time(s)": 70
    },
    {
        "Altitude(m)": 604507.2447651796,
        "Argument of Periapsis(deg)": 0.0008335156730637124,
        "Eccentricity": 0.0,
        "Inclination(deg)": 60.0,
        "Latitude(deg)": 4.229762970164382,
        "Longitude(deg)": 162.12701884397194,
        "Mean Anomaly(deg)": 4.96084916369462,
        "RAAN(deg)": 259.99663960688207,
        "Satellite Name": "Test1 1144",
        "Satellite Number": 1144,
        "Semi-Major Axis(m)": 6980739.136638005,
        "Time(s)": 80
    },
    {
        "Altitude(m)": 604464.1022436057,
        "Argument of Periapsis(deg)": 0.0009377051321966765,
        "Eccentricity": 0.0,
        "Inclination(deg)": 60.0,
        "Latitude(deg)": 4.769682341449081,
        "Longitude(deg)": 162.39708728329478,
        "Mean Anomaly(deg)": 5.580955309156474,
        "RAAN(deg)": 259.99621955774234,
        "Satellite Name": "Test1 1144",
        "Satellite Number": 1144,
        "Semi-Major Axis(m)": 6980739.136638005,
        "Time(s)": 90
    },
    {
        "Altitude(m)": 604424.196055149,
        "Argument of Periapsis(deg)": 0.0010418945913296407,
        "Eccentricity": 0.0,
        "Inclination(deg)": 60.0,
        "Latitude(deg)": 5.309460636804021,
        "Longitude(deg)": 162.66764736801056,
        "Mean Anomaly(deg)": 6.201061454618327,
        "RAAN(deg)": 259.99579950860254,
        "Satellite Name": "Test1 1144",
        "Satellite Number": 1144,
        "Semi-Major Axis(m)": 6980739.136638005,
        "Time(s)": 100
    },
    {
        "Altitude(m)": 604387.5203940393,
        "Argument of Periapsis(deg)": 0.0011460840504626045,
        "Eccentricity": 0.0,
        "Inclination(deg)": 60.0,
        "Latitude(deg)": 5.849080317744458,
        "Longitude(deg)": 162.9387549050756,
        "Mean Anomaly(deg)": 6.821167600080129,
        "RAAN(deg)": 259.99537945946287,
        "Satellite Name": "Test1 1144",
        "Satellite Number": 1144,
        "Semi-Major Axis(m)": 6980739.136638005,
        "Time(s)": 110
    },
    {
        "Altitude(m)": 604354.0679492017,
        "Argument of Periapsis(deg)": 0.0012502735095955685,
        "Eccentricity": 0.0,
        "Inclination(deg)": 60.0,
        "Latitude(deg)": 6.38852374316018,
        "Longitude(deg)": 163.21046602595175,
        "Mean Anomaly(deg)": 7.441273745541982,
        "RAAN(deg)": 259.9949594103231,
        "Satellite Name": "Test1 1144",
        "Satellite Number": 1144,
        "Semi-Major Axis(m)": 6980739.136638005,
        "Time(s)": 120
    },
    {
        "Altitude(m)": 604323.8299106797,
        "Argument of Periapsis(deg)": 0.0013544629687285324,
        "Eccentricity": 0.0,
        "Inclination(deg)": 60.0,
        "Latitude(deg)": 6.927773158702704,
        "Longitude(deg)": 163.48283772443887,
        "Mean Anomaly(deg)": 8.061379891003783,
        "RAAN(deg)": 259.99453936118334,
        "Satellite Name": "Test1 1144",
        "Satellite Number": 1144,
        "Semi-Major Axis(m)": 6980739.136638005,
        "Time(s)": 130
    },
    {
        "Altitude(m)": 604296.7959767962,
        "Argument of Periapsis(deg)": 0.0014586524278614966,
        "Eccentricity": 0.0,
        "Inclination(deg)": 60.0,
        "Latitude(deg)": 7.466810686024975,
        "Longitude(deg)": 163.7559268819558,
        "Mean Anomaly(deg)": 8.681486036465637,
        "RAAN(deg)": 259.9941193120436,
        "Satellite Name": "Test1 1144",
        "Satellite Number": 1144,
        "Semi-Major Axis(m)": 6980739.136638005,
        "Time(s)": 140
    },
    {
        "Altitude(m)": 604272.9543620407,
        "Argument of Periapsis(deg)": 0.0015628418869944607,
        "Eccentricity": 0.0,
        "Inclination(deg)": 60.0,
        "Latitude(deg)": 8.005618311852356,
        "Longitude(deg)": 164.02979080604499,
        "Mean Anomaly(deg)": 9.30159218192744,
        "RAAN(deg)": 259.9936992629039,
        "Satellite Name": "Test1 1144",
        "Satellite Number": 1144,
        "Semi-Major Axis(m)": 6980739.136638005,
        "Time(s)": 150
    },
    {
        "Altitude(m)": 604252.2918057045,
        "Argument of Periapsis(deg)": 0.0016670313461274247,
        "Eccentricity": 0.0,
        "Inclination(deg)": 60.0,
        "Latitude(deg)": 8.544177876873867,
        "Longitude(deg)": 164.30448776925925,
        "Mean Anomaly(deg)": 9.921698327389292,
        "RAAN(deg)": 259.99327921376414,
        "Satellite Name": "Test1 1144",
        "Satellite Number": 1144,
        "Semi-Major Axis(m)": 6980739.136638005,
        "Time(s)": 160
    },
    {
        "Altitude(m)": 604234.7935812012,
        "Argument of Periapsis(deg)": 0.0017712208052603888,
        "Eccentricity": 0.0,
        "Inclination(deg)": 60.0,
        "Latitude(deg)": 9.082471064439767,
        "Longitude(deg)": 164.58007603558383,
        "Mean Anomaly(deg)": 10.541804472851094,
        "RAAN(deg)": 259.9928591646244,
        "Satellite Name": "Test1 1144",
        "Satellite Number": 1144,
        "Semi-Major Axis(m)": 6980739.136638005,
        "Time(s)": 170
    },
    {
        "Altitude(m)": 604220.4435061384,
        "Argument of Periapsis(deg)": 0.001875410264393353,
        "Eccentricity": 0.0,
        "Inclination(deg)": 60.0,
        "Latitude(deg)": 9.620479389045963,
        "Longitude(deg)": 164.8566144001729,
        "Mean Anomaly(deg)": 11.161910618312948,
        "RAAN(deg)": 259.9924391154846,
        "Satellite Name": "Test1 1144",
        "Satellite Number": 1144,
        "Semi-Major Axis(m)": 6980739.136638005,
        "Time(s)": 180
    },
    {
        "Altitude(m)": 604209.2239530628,
        "Argument of Periapsis(deg)": 0.0019795997235263173,
        "Eccentricity": 0.0,
        "Inclination(deg)": 60.0,
        "Latitude(deg)": 10.158184184590777,
        "Longitude(deg)": 165.13416272955482,
        "Mean Anomaly(deg)": 11.782016763774802,
        "RAAN(deg)": 259.99201906634494,
        "Satellite Name": "Test1 1144",
        "Satellite Number": 1144,
        "Semi-Major Axis(m)": 6980739.136638005,
        "Time(s)": 190
    }
]